IRIDIUM 171             
1 43929U 19002H   26022.06605085  .00000060  00000+0  14478-4 0  9994
2 43929  86.3938  54.9393 0002212  87.1281 273.0168 14.34218521368019
IRIDIUM 170             
1 43930U 19002J   26022.17052192  .00001215  00000+0  18885-3 0  9991
2 43930  86.6054  54.5974 0002340  87.1963 272.9522 14.72250417377770
IRIDIUM 167             
1 43931U 19002K   26022.05970850  .00000099  00000+0  28362-4 0  9990
2 43931  86.3929  54.6727 0002378  83.2239 276.9227 14.34218646368019
IRIDIUM 181             
1 56726U 23068S   26022.23740911  .00000595  00000+0  17068-3 0  9997
2 56726  86.4513 117.8152 0001621  91.5935 268.5452 14.43308904141387
IRIDIUM 177             
1 56727U 23068T   26022.30309295  .00001214  00000+0  15631-3 0  9995
2 56727  86.1940  38.0554 0002354  89.1857 270.9634 14.80229969144789
IRIDIUM 174             
1 56728U 23068U   26022.15816586  .00000927  00000+0  14306-3 0  9993
2 56728  86.6059  54.7355 0002351  92.1070 268.0417 14.72257355144539
IRIDIUM 178             
1 56729U 23068V   26022.22461084  .00001253  00000+0  16135-3 0  9996
2 56729  86.6515  86.3818 0002184  87.1779 272.9693 14.80254179144772
IRIDIUM 179             
1 56730U 23068W   26022.21923783  .00002693  00000+0  35087-3 0  9992
2 56730  86.6763  94.9333 0002449  88.8799 271.2704 14.80251248144779
